[{"OBJECT_NAME":"NEXSAT-1","OBJECT_ID":"2024-024E","EPOCH":"2026-03-09T22:47:24.778176","MEAN_MOTION":15.32166372,"ECCENTRICITY":0.00099795,"INCLINATION":97.3124,"RA_OF_ASC_NODE":144.1918,"ARG_OF_PERICENTER":108.5709,"MEAN_ANOMALY":251.6617,"EPHEMERIS_TYPE":0,"CLASSIFICATION_TYPE":"U","NORAD_CAT_ID":58921,"ELEMENT_SET_NO":999,"REV_AT_EPOCH":11669,"BSTAR":0.00031433612,"MEAN_MOTION_DOT":9.702e-5,"MEAN_MOTION_DDOT":0},{"OBJECT_NAME":"STARLINK-34665","OBJECT_ID":"2025-167M","EPOCH":"2026-03-09T06:45:12.102912","MEAN_MOTION":15.30202424,"ECCENTRICITY":0.00010625,"INCLINATION":53.1613,"RA_OF_ASC_NODE":28.8152,"ARG_OF_PERICENTER":70.3211,"MEAN_ANOMALY":289.7905,"EPHEMERIS_TYPE":0,"CLASSIFICATION_TYPE":"U","NORAD_CAT_ID":65089,"ELEMENT_SET_NO":999,"REV_AT_EPOCH":3341,"BSTAR":0.0004399694,"MEAN_MOTION_DOT":0.00012695,"MEAN_MOTION_DDOT":0}]
